[{"OBJECT_NAME":"STARLINK-35213","OBJECT_ID":"2025-210S","EPOCH":"2026-03-09T21:31:24.523968","MEAN_MOTION":15.3019402,"ECCENTRICITY":0.00015849,"INCLINATION":53.16,"RA_OF_ASC_NODE":306.0561,"ARG_OF_PERICENTER":148.5233,"MEAN_ANOMALY":211.5862,"EPHEMERIS_TYPE":0,"CLASSIFICATION_TYPE":"U","NORAD_CAT_ID":65638,"ELEMENT_SET_NO":999,"REV_AT_EPOCH":2776,"BSTAR":0.00086406085,"MEAN_MOTION_DOT":0.00025314,"MEAN_MOTION_DDOT":0},{"OBJECT_NAME":"KUIPER-00175","OBJECT_ID":"2025-301C","EPOCH":"2026-03-09T23:30:37.840032","MEAN_MOTION":15.30996371,"ECCENTRICITY":0.00022792,"INCLINATION":51.8781,"RA_OF_ASC_NODE":63.6978,"ARG_OF_PERICENTER":50.5695,"MEAN_ANOMALY":309.549,"EPHEMERIS_TYPE":0,"CLASSIFICATION_TYPE":"U","NORAD_CAT_ID":67135,"ELEMENT_SET_NO":999,"REV_AT_EPOCH":1385,"BSTAR":0.00066732304,"MEAN_MOTION_DOT":0.00019968,"MEAN_MOTION_DDOT":0}]
